#dP2024 12  1  0  0  0.00000000      96 __u+U IGS20 FIT  IAC
## 2343      0.00000000   900.00000000 60645 0.0000000000000
+  130   C01C02C03C04C05C06C08C09C10C11C12C13C14C16C19C20C21
+        C22C23C24C25C26C27C28C29C30C32C33C34C35C36C37C38C39
+        C40C41C42C43C44C45C59C60C62E02E03E04E05E06E07E08E09
+        E10E11E12E13E14E15E18E19E21E24E25E26E27E29E30E31E33
+        E34E36G02G03G04G05G06G07G08G09G10G11G12G13G14G15G16
+        G17G18G19G20G21G22G23G24G25G26G27G28G29G30G31G32J02
+        J03J04J07R01R02R03R04R05R06R07R08R09R10R11R12R13R14
+        R15R16R17R18R19R20R21R22R23R24R26  0  0  0  0  0  0
++        16 16 16 16 16  9  9  9 10  8  8  9  8  9  7  7  7
++         7  7  7  7  7  7  7  7  7  7  7  7  7  7  7  8  8
++         8  7  7  7  7  7 16 16 17  4  4  4  4  4  4  4  4
++         4  4  4  4  4  4  4  4  4  4  4  4  4  4  4  4  4
++         4  4  4  4  4  4  4  4  4  4  4  4  3  4  4  3  4
++         4  4  4  4  4  4  4  3  4  4  4  4  4  3  4  3  9
++        10 10 20  7  6  6  6  6 14  6  6  6 13  6  6 13  6
++         6  6  6  6  7  7  6  6 14  6  8  0  0  0  0  0  0
%c M  cc GPS ccc cccc cccc cccc cccc ccccc ccccc ccccc ccccc
%c cc cc ccc ccc cccc cccc cccc cccc ccccc ccccc ccccc ccccc
%f  0.0000000  0.000000000  0.00000000000  0.000000000000000
%f  0.0000000  0.000000000  0.00000000000  0.000000000000000
%i    0    0    0    0      0      0      0      0         0
%i    0    0    0    0      0      0      0      0         0
/* INFORMATION & ANALYSIS CENTER (IAC)            RAPID DATA
/* S/V CLOCKS ARE ALIGNED TO GNSS TIME                      
/* G:C1WC2W R:C1PC2P E:C1XC5X C:C2IC6I J:C1CC2S             
/* PCV:IGS20_2317 OL/AL:FES2004  NONE     YN ORB:CoN CLK:CoN
*  2024 12 01 18  0  0.00000000
PC01 -34304.462464  24516.198246   1085.378267   -368.413644
PC02   4307.494083  41921.618295   -511.675788    756.054879
PC03 -14809.291587  39445.998620    555.567739    794.768493
PC04 -39581.167884  14488.038522   1566.229599   -520.193634
PC05  21818.395501  36085.516036   -807.163625    306.733964
PC06 -10549.613042  23113.104039 -33593.543402    498.489814
PC08   1161.137649  33968.643728  25118.230048   -861.847459
PC09  -2311.336838  24170.554841 -33952.434268   -715.339858
PC10  -7008.955784  39161.706945  13465.848574 999999.999999
PC11 -26996.140764   4848.045800  -5053.809702    269.031327
PC12 -17614.171255  -8346.999594 -19923.402766   -241.222447
PC13   5379.855662  36730.607691  20459.705070     83.525644
PC14 -16120.577560   4615.949077  22301.960418   -492.427975
PC16 -14340.110406  21510.323920 -33072.812241     58.789229
PC19  15116.509601 -14949.493072 -18068.501615   -970.983494
PC20  14942.427246   4352.478016 -23158.426342   -898.471063
PC21  -5566.376475 -23130.895441  14609.416059   -911.405428
PC22   6699.955755 -27003.195237  -2301.731231    194.461551
PC23  -2542.874655  17984.543938 -21193.307834   -903.063190
PC24 -23578.555735 -12780.010958  -7682.140918    746.839819
PC25 -18468.690191   4078.283811 -20528.479836    576.376722
PC26 -15418.946714 -21253.619714   9372.430578   -385.146153
PC27   8700.417836  13851.269115  22593.867535    403.882994
PC28  -9191.503528  17754.375582  19478.860905    314.861315
PC29  25154.727002 -11817.696983  -2516.237450    369.660974
PC30  23466.345260   2145.760655  14929.762430     41.857810
PC32   5675.361105  23153.651329 -14490.203311   -823.510286
PC33 -15067.955911  14908.559127  18142.464569   -948.568037
PC34 -24392.793901   -801.754173 -13557.450847    576.326569
PC35   9238.204394 -18175.516874 -19049.052997    193.215570
PC36  18330.732748  -3993.551597  20676.661791    230.633189
PC37  14727.150891  21667.888607  -9655.393699   -894.711999
PC38  -4305.867896  30709.584801  28717.230189    194.549095
PC39 -18689.877155  21027.282265 -31437.073144    -10.470569
PC40 -20999.139189  35900.306040   5936.898111   -105.807967
PC41  -7212.877448  26749.503300   3336.943307   -886.788773
PC42 -14489.935521  -6560.827936  22969.173045   -528.211602
PC43 -25505.632868  11244.058793   1543.937715     93.945319
PC44  -9178.184879 -13704.027417 -22523.556231    668.742619
PC45   3116.828858 -17556.211202  21448.152917   -178.639319
PC59 -32267.056158  27129.805625    578.808295     -0.884715
PC60   7315.245287  41532.623463    830.031503      0.596907
PC62 -39604.555044  14417.663400   -666.490954      0.262559
PE02 -17720.242349 -10649.038154 -21183.821379    179.036444
PE03 -20898.684138     41.949831  20948.871062   -157.106263
PE04  23345.068218 -17283.099255  -5694.533713    -96.185041
PE05  -6226.485255 -16828.274141  23538.031042   4806.589037
PE06  19086.507661 -22295.711057   3783.494503    -53.729720
PE07 -12428.941524  23966.178687 -12132.970640   -155.859063
PE08 -23508.174556  16796.208228   6413.105440   -376.967372
PE09  12564.682602 -23909.828880  12114.310771   -684.122620
PE10  14851.066985 -11174.025989 -23036.599202   -673.591158
PE11   3359.734362 -15750.653094 -24836.269112    489.536674
PE12  22712.167669  -5667.773589 -18103.289863  -1320.838505
PE13  -4013.269116  15498.025747  24908.718689    -27.431202
PE14 -20289.816509     51.844643 -16949.162576    429.253067
PE15 -23222.081507   5145.285125  17635.492900   -142.426167
PE18  25428.989220 -16080.674362   7569.238776    835.679828
PE19  19880.103140   1699.622442 -21862.167564   1019.359896
PE21  11490.742313  26405.700832   6858.574244   -631.589367
PE24   1873.939814 -27008.597174  11919.046235  -1130.953944
PE25 -11241.601112 -26608.714760  -6438.512356     11.817265
PE26  17568.266792  16603.402672  17099.871402   -195.576971
PE27  -1748.608081  27048.535694 -11914.588456   -518.568565
PE29   6645.530917  16707.128343 -23524.530940    -50.171779
PE30 -13821.770712  11833.930501 -23363.731291   -983.872104
PE31  13794.181051 -11716.066731  23424.353354    -45.007625
PE33  28403.921954   8341.704296    325.543912     16.276281
PE34 -28488.212712  -8015.030133    115.112682   -149.190394
PE36 -17147.780707 -16600.555332 -17500.701707   -318.913111
PG02 -16039.031746 -13166.659557 -16315.153750   -301.922373
PG03 -12544.540790 -22186.860834   7505.612067    614.222361
PG04  -9211.336297 -12139.247582  21759.315750    488.816539
PG05   4472.283547  25054.201997   7307.120036   -194.704063
PG06 -19764.694794   6794.304625  16534.019420    -11.279671
PG07 -25581.476329  -7526.483107   3269.165122    -17.286134
PG08    248.362430 -19977.975959 -17397.114993    427.977190
PG09 -16313.624100  -3032.403826  20659.742666    468.490767
PG10  12715.916528  -7459.605173 -21839.502904   -217.342338
PG11  -6715.483876  13796.894565  21711.969105   -751.911839
PG12   9166.525480  24627.366461   3757.580581   -555.664336
PG13 -10158.015134  20612.357243 -13341.682866    688.299463
PG14 -15197.467145   3412.610792 -21474.904134    551.420426
PG15   2794.146860  19969.239286 -17738.707027    234.430496
PG16   2127.945238 -23691.672719  10980.176165   -114.161815
PG17 -21494.214535  11480.822986 -10383.292127    536.789268
PG18  26052.419020   5781.330842     39.647262   -660.588857
PG19 -19993.939249  17069.515592  -1462.427762    569.145896
PG20  -2972.443184  19982.627041  17396.038326    368.259028
PG21 -10195.056260 -14792.122871 -19511.263333     96.072819
PG22 -11508.750681  12428.778046 -20142.572428    -83.454175
PG23  16566.808592   7775.323558 -19294.610776    374.757734
PG24  13651.154904  14747.043986 -18023.646686   -476.703270
PG25  16317.949782  15195.031388  14276.374056    498.541644
PG26   8459.479853 -16111.641665  19043.250072      6.734891
PG27  10421.037544 -22348.156117  -9571.950327    -34.487318
PG28  21152.777491  -6747.663630  14565.491152   -495.749913
PG29  15769.701425   4623.402316  20850.199934   -559.421065
PG30 -25232.712689   1355.384749  -8464.412519   -270.388996
PG31  12369.651621 -11864.309618  20135.131895   -220.773484
PG32  20249.173842 -14842.324152  -8120.662301   -565.678104
PJ02 -21333.440234  28377.583342 -17986.636659      0.209572
PJ03 -28978.915046  24008.646740  24294.475204     -7.999370
PJ04 -30178.462259  27845.481909  15253.487880     21.507761
PJ07 -25329.888262  33717.339499    -21.402173 999999.999999
PR01 -13274.887044  12402.947302  17901.523366    106.278477
PR02 -10545.950226  23094.501327   2896.583868    -39.323899
PR03  -1113.906871  21279.859814 -14029.548744    112.421412
PR04   8189.627791   7863.769154 -22817.550216    266.533157
PR05  13437.897572  -9608.203906 -19415.982286    141.538015
PR06   8947.088869 -23831.766640  -1432.924549   -191.264665
PR07    789.663104 -20968.065700  14499.841521     96.082686
PR08  -8555.315442  -7501.887371  22883.316040     -6.193422
PR09   2126.024570 -13722.121652  21431.517068    223.733998
PR10  -9713.215165 -20372.250124  11792.535308   -251.638963
PR11 -17886.653272 -17284.176776  -5690.542171      5.709249
PR12 -14636.067735  -2114.968206 -20761.223512     47.883096
PR13  -4288.571762  11582.955009 -22337.877785    -54.039414
PR14  11034.379117  20711.055169  -9969.163566     27.324533
PR15  18089.309264  16373.131277   7445.126992     73.562194
PR16  14614.716000   2285.086401  20775.308951     31.259295
PR17   4801.415535   9960.803956  23005.571313    144.773108
PR18  19887.110509   4253.016598  15390.313202    174.620824
PR19  25376.192629  -1976.174441   1743.315227   -300.413643
PR20  15414.481228  -9683.649671 -17833.790323   -122.626932
PR21  -3453.413071 -10145.953113 -23137.102948   -155.968333
PR22 -20712.317956  -4342.346808 -14216.179835    -27.660567
PR23 -25203.496515   3805.657588    994.073057   -140.135205
PR24 -14413.055632  10896.726411  18020.685220    -82.343379
PR26  -7696.711452  -9307.101653  22488.085638   -133.130798
EOF
